{
  "branches": [
    {
      "id": "1",
      "firma": "Manor Warenhaus Zürich38483980",
      "plz": "8001",
      "ort": "Zürich",
      "kanton": "ZH",
      "email": "manor.zh@example.com",
      "phone": "044 241 91 18",
      "website": "http://www.manor.ch",
      "opening_hours": "Mo-Fr 9 - 12 und 13 bis 18:30",
      "lat": 47.3768866,
      "lng": 8.541694
    },
    {
      "id": "2",
      "firma": "Manor Warenhaus Zürich Letzipark",
      "plz": "8048",
      "ort": "Zürich",
      "kanton": "ZH",
      "email": "manor.letzipark@example.com",
      "phone": "044 241 91 20",
      "website": "http://www.manor.ch",
      "opening_hours": "Mo-Fr 9 - 12 und 13 bis 18:30",
      "lat": 47.3823095,
      "lng": 8.4961951
    },
    {
      "id": "3",
      "firma": "Coop City Annahof",
      "plz": "8000",
      "ort": "Zürich",
      "kanton": "ZH",
      "email": "coop.annahof@example.com",
      "phone": "044 241 91 21",
      "website": "http://www.coop.ch",
      "opening_hours": "Mo-Fr 9 - 12 und 13 bis 18:30",
      "lat": 47.3781773,
      "lng": 8.5401929
    },
    {
      "id": "4",
      "firma": "Blume3000 AG",
      "plz": "8001",
      "ort": "Zürich",
      "kanton": "ZH",
      "email": "blume3000.ag@example.com",
      "phone": "044 241 91 22",
      "website": "http://www.blume3000.ch",
      "opening_hours": "Mo-Fr 9 - 12 und 13 bis 18:30",
      "lat": 47.3753904,
      "lng": 8.5404439
    },
    {
      "id": "5",
      "firma": "Blume3000",
      "plz": "8001",
      "ort": "Zürich",
      "kanton": "ZH",
      "email": "blume3000@example.com",
      "phone": "044 241 91 23",
      "website": "http://www.blume3000.ch",
      "opening_hours": "Mo-Fr 9 - 12 und 13 bis 18:30",
      "lat": 47.3753904,
      "lng": 8.5404439
    },
    {
      "id": "6",
      "firma": "Hundesalon Dolly",
      "plz": "8004",
      "ort": "Zürich",
      "kanton": "ZH",
      "email": "hundesalon.dolly@example.com",
      "phone": "044 241 91 24",
      "website": "http://www.hundesalon-dolly.ch",
      "opening_hours": "Mo-Fr 9 - 12 und 13 bis 18:30",
      "lat": 47.3778174,
      "lng": 8.5277864
    },
    {
      "id": "7",
      "firma": "Paracelsus Apotheke",
      "plz": "8004",
      "ort": "Zürich",
      "kanton": "ZH",
      "email": "paracelsus.apotheke@example.com",
      "phone": "044 241 91 25",
      "website": "http://www.paracelsus-apotheke.ch",
      "opening_hours": "Mo-Fr 9 - 12 und 13 bis 18:30",
      "lat": 47.3778174,
      "lng": 8.5277864
    },
    {
      "id": "8",
      "firma": "Paracelsus Apotheke1",
      "plz": "8004",
      "ort": "Zürich",
      "kanton": "ZH",
      "email": "paracelsus.apotheke@example.com",
      "phone": "044 241 91 25",
      "website": "http://www.paracelsus-apotheke.ch",
      "opening_hours": "Mo-Fr 9 - 12 und 13 bis 18:30",
      "lat": 47.3778174,
      "lng": 8.5277864
    },
    {
      "id": "9",
      "firma": "Toblerplatz Drogerie",
      "plz": "8044",
      "ort": "Zürich",
      "kanton": "ZH",
      "email": "toblerplatz.drogerie@example.com",
      "phone": "044 241 91 27",
      "website": "http://www.toblerplatz-drogerie.ch",
      "opening_hours": "Mo-Fr 9 - 12 und 13 bis 18:30",
      "lat": 47.380553,
      "lng": 8.5667926
    },
    {
      "id": "1718712916874",
      "firma": "9876",
      "kanton": "rse",
      "phone": "044 241 91 18",
      "plz": "sd",
      "ort": "ssds",
      "email": "d@d",
      "website": "https://www",
      "opening_hours": "sdfp",
      "lat": null,
      "lng": null
    }
  ]
}