[
  {
    "id": 1,
    "sortiment": "icon",
    "firma": "Manor Warenhaus Zürich",
    "plz": "8001",
    "ort": "Zürich",
    "kanton": "ZH",
    "email": "manor.zh@example.com",
    "phone": "044 241 91 18",
    "website": "http://www.manor.ch",
    "opening_hours": "Mo-Fr 9 - 12 und 13 bis 18:30"
  },
  {
    "id": 2,
    "sortiment": "icon",
    "firma": "Manor AG",
    "plz": "8021",
    "ort": "Zürich",
    "kanton": "ZH",
    "email": "manor.ag@example.com",
    "phone": "044 241 91 19",
    "website": "http://www.manor.ch",
    "opening_hours": "Mo-Fr 9 - 12 und 13 bis 18:30"
  },
  {
    "id": 3,
    "sortiment": "icon",
    "firma": "Manor Warenhaus Zürich Letzipark",
    "plz": "8048",
    "ort": "Zürich",
    "kanton": "ZH",
    "email": "manor.letzipark@example.com",
    "phone": "044 241 91 20",
    "website": "http://www.manor.ch",
    "opening_hours": "Mo-Fr 9 - 12 und 13 bis 18:30"
  },
  {
    "id": 4,
    "sortiment": "icon",
    "firma": "Coop City Annahof",
    "plz": "8000",
    "ort": "Zürich",
    "kanton": "ZH",
    "email": "coop.annahof@example.com",
    "phone": "044 241 91 21",
    "website": "http://www.coop.ch",
    "opening_hours": "Mo-Fr 9 - 12 und 13 bis 18:30"
  },
  {
    "id": 5,
    "sortiment": "icon",
    "firma": "Blume3000 AG",
    "plz": "8001",
    "ort": "Zürich",
    "kanton": "ZH",
    "email": "blume3000.ag@example.com",
    "phone": "044 241 91 22",
    "website": "http://www.blume3000.ch",
    "opening_hours": "Mo-Fr 9 - 12 und 13 bis 18:30"
  },
  {
    "id": 6,
    "sortiment": "icon",
    "firma": "Blume3000",
    "plz": "8001",
    "ort": "Zürich",
    "kanton": "ZH",
    "email": "blume3000@example.com",
    "phone": "044 241 91 23",
    "website": "http://www.blume3000.ch",
    "opening_hours": "Mo-Fr 9 - 12 und 13 bis 18:30"
  },
  {
    "id": 7,
    "sortiment": "icon",
    "firma": "Hundesalon Dolly",
    "plz": "8004",
    "ort": "Zürich",
    "kanton": "ZH",
    "email": "hundesalon.dolly@example.com",
    "phone": "044 241 91 24",
    "website": "http://www.hundesalon-dolly.ch",
    "opening_hours": "Mo-Fr 9 - 12 und 13 bis 18:30"
  },
  {
    "id": 8,
    "sortiment": "icon",
    "firma": "Paracelsus Apotheke",
    "plz": "8004",
    "ort": "Zürich",
    "kanton": "ZH",
    "email": "paracelsus.apotheke@example.com",
    "phone": "044 241 91 25",
    "website": "http://www.paracelsus-apotheke.ch",
    "opening_hours": "Mo-Fr 9 - 12 und 13 bis 18:30"
  },
  {
    "id": 9,
    "sortiment": "icon",
    "firma": "Apotheke Wengihof",
    "plz": "8004",
    "ort": "Zürich",
    "kanton": "ZH",
    "email": "apotheke.wengihof@example.com",
    "phone": "044 241 91 26",
    "website": "http://www.apotheke-wengihof.ch",
    "opening_hours": "Mo-Fr 9 - 12 und 13 bis 18:30"
  },
  {
    "id": 10,
    "sortiment": "icon",
    "firma": "Toblerplatz Drogerie",
    "plz": "8044",
    "ort": "Zürich",
    "kanton": "ZH",
    "email": "toblerplatz.drogerie@example.com",
    "phone": "044 241 91 27",
    "website": "http://www.toblerplatz-drogerie.ch",
    "opening_hours": "Mo-Fr 9 - 12 und 13 bis 18:30"
  }
]
